[{"OBJECT_NAME":"STARLINK-2169","OBJECT_ID":"2021-017AG","EPOCH":"2026-03-09T15:14:24.157248","MEAN_MOTION":15.29354188,"ECCENTRICITY":0.0001467,"INCLINATION":53.1582,"RA_OF_ASC_NODE":204.0919,"ARG_OF_PERICENTER":45.6401,"MEAN_ANOMALY":314.4719,"EPHEMERIS_TYPE":0,"CLASSIFICATION_TYPE":"U","NORAD_CAT_ID":47752,"ELEMENT_SET_NO":999,"REV_AT_EPOCH":27788,"BSTAR":0.00018146,"MEAN_MOTION_DOT":4.883e-5,"MEAN_MOTION_DDOT":0},{"OBJECT_NAME":"CUBESX-HSE 3 (RS42S)","OBJECT_ID":"2023-091N","EPOCH":"2026-03-09T22:57:25.321248","MEAN_MOTION":15.286147,"ECCENTRICITY":0.00127191,"INCLINATION":97.5203,"RA_OF_ASC_NODE":133.4295,"ARG_OF_PERICENTER":86.5376,"MEAN_ANOMALY":273.7318,"EPHEMERIS_TYPE":0,"CLASSIFICATION_TYPE":"U","NORAD_CAT_ID":57178,"ELEMENT_SET_NO":999,"REV_AT_EPOCH":14925,"BSTAR":0.00059055694,"MEAN_MOTION_DOT":0.00016417,"MEAN_MOTION_DDOT":0}]
